{
  "type": "FeatureCollection",
  "features": [
    {
      "type": "Feature",
      "properties": {
        "norad_id": 41826,
        "name": "FENGYUN 1C DEB",
        "group": "fengyun-1c-debris",
        "lat": -43.5700613695517,
        "lon": 55.555735615273974,
        "alt_km": 810.2812566313569,
        "timestamp": "2025-12-07T07:31:36.588827+00:00",
        "meta_object_name": "FENGYUN 1C DEB",
        "meta_object_id": "1999-025EYD",
        "meta_epoch": "2025-12-04T15:38:19.862592",
        "meta_mean_motion": 14.23663434,
        "meta_eccentricity": 0.0055166,
        "meta_inclination": 98.7346,
        "meta_ra_of_asc_node": 44.5031,
        "meta_arg_of_pericenter": 246.686,
        "meta_mean_anomaly": 112.8507,
        "meta_ephemeris_type": 0,
        "meta_classification_type": "U",
        "meta_norad_cat_id": 41826,
        "meta_element_set_no": 999,
        "meta_rev_at_epoch": 47245,
        "meta_bstar": 0.0031602,
        "meta_mean_motion_dot": 7.285e-05,
        "meta_mean_motion_ddot": 0,
        "tle_line1": "1 41826U 99025EYD 25338.65161878  .00007285  00000+0  31602-2 0  9994",
        "tle_line2": "2 41826  98.7346  44.5031 0055166 246.6860 112.8507 14.23663434472454"
      },
      "geometry": {
        "type": "Point",
        "coordinates": [
          55.555735615273974,
          -43.5700613695517
        ]
      }
    },
    {
      "type": "Feature",
      "properties": {
        "norad_id": 41827,
        "name": "FENGYUN 1C DEB",
        "group": "fengyun-1c-debris",
        "lat": -0.4111907687133877,
        "lon": -129.52435508553552,
        "alt_km": 783.1540590331424,
        "timestamp": "2025-12-07T07:31:36.588837+00:00",
        "meta_object_name": "FENGYUN 1C DEB",
        "meta_object_id": "1999-025EYE",
        "meta_epoch": "2025-12-06T15:30:52.200000",
        "meta_mean_motion": 14.25201368,
        "meta_eccentricity": 0.00579489,
        "meta_inclination": 98.7432,
        "meta_ra_of_asc_node": 49.8742,
        "meta_arg_of_pericenter": 230.9663,
        "meta_mean_anomaly": 128.635,
        "meta_ephemeris_type": 0,
        "meta_classification_type": "U",
        "meta_norad_cat_id": 41827,
        "meta_element_set_no": 999,
        "meta_rev_at_epoch": 47244,
        "meta_bstar": 0.0029620033,
        "meta_mean_motion_dot": 7.044e-05,
        "meta_mean_motion_ddot": 0,
        "tle_line1": "1 41827U 99025EYE 25340.64643750  .00007044  00000+0  29620-2 0  9991",
        "tle_line2": "2 41827  98.7432  49.8742 0057948 230.9663 128.6350 14.25201368472441"
      },
      "geometry": {
        "type": "Point",
        "coordinates": [
          -129.52435508553552,
          -0.4111907687133877
        ]
      }
    },
    {
      "type": "Feature",
      "properties": {
        "norad_id": 41828,
        "name": "FENGYUN 1C DEB",
        "group": "fengyun-1c-debris",
        "lat": -74.39486244327595,
        "lon": 143.25880194252267,
        "alt_km": 729.0459779466019,
        "timestamp": "2025-12-07T07:31:36.588847+00:00",
        "meta_object_name": "FENGYUN 1C DEB",
        "meta_object_id": "1999-025EYF",
        "meta_epoch": "2025-12-06T21:57:21.749184",
        "meta_mean_motion": 14.51353436,
        "meta_eccentricity": 0.00395043,
        "meta_inclination": 98.9233,
        "meta_ra_of_asc_node": 108.6049,
        "meta_arg_of_pericenter": 192.6023,
        "meta_mean_anomaly": 167.4186,
        "meta_ephemeris_type": 0,
        "meta_classification_type": "U",
        "meta_norad_cat_id": 41828,
        "meta_element_set_no": 999,
        "meta_rev_at_epoch": 47379,
        "meta_bstar": 0.0077355361,
        "meta_mean_motion_dot": 0.00031227,
        "meta_mean_motion_ddot": 0,
        "tle_line1": "1 41828U 99025EYF 25340.91483506  .00031227  00000+0  77355-2 0  9991",
        "tle_line2": "2 41828  98.9233 108.6049 0039504 192.6023 167.4186 14.51353436473799"
      },
      "geometry": {
        "type": "Point",
        "coordinates": [
          143.25880194252267,
          -74.39486244327595
        ]
      }
    },
    {
      "type": "Feature",
      "properties": {
        "norad_id": 41829,
        "name": "FENGYUN 1C DEB",
        "group": "fengyun-1c-debris",
        "lat": -28.592501263294814,
        "lon": 55.35819447939186,
        "alt_km": 818.4932330242909,
        "timestamp": "2025-12-07T07:31:36.588857+00:00",
        "meta_object_name": "FENGYUN 1C DEB",
        "meta_object_id": "1999-025EYG",
        "meta_epoch": "2025-12-06T16:29:49.565472",
        "meta_mean_motion": 14.25057546,
        "meta_eccentricity": 0.00561007,
        "meta_inclination": 98.7446,
        "meta_ra_of_asc_node": 49.922,
        "meta_arg_of_pericenter": 236.349,
        "meta_mean_anomaly": 123.2331,
        "meta_ephemeris_type": 0,
        "meta_classification_type": "U",
        "meta_norad_cat_id": 41829,
        "meta_element_set_no": 999,
        "meta_rev_at_epoch": 47221,
        "meta_bstar": 0.0027463612,
        "meta_mean_motion_dot": 6.502e-05,
        "meta_mean_motion_ddot": 0,
        "tle_line1": "1 41829U 99025EYG 25340.68737923  .00006502  00000+0  27464-2 0  9995",
        "tle_line2": "2 41829  98.7446  49.9220 0056100 236.3490 123.2331 14.25057546472219"
      },
      "geometry": {
        "type": "Point",
        "coordinates": [
          55.35819447939186,
          -28.592501263294814
        ]
      }
    },
    {
      "type": "Feature",
      "properties": {
        "norad_id": 41830,
        "name": "FENGYUN 1C DEB",
        "group": "fengyun-1c-debris",
        "lat": 55.44445271414952,
        "lon": -113.7744586425823,
        "alt_km": 810.7978254223608,
        "timestamp": "2025-12-07T07:31:36.588867+00:00",
        "meta_object_name": "FENGYUN 1C DEB",
        "meta_object_id": "1999-025EYH",
        "meta_epoch": "2025-12-06T15:47:34.415808",
        "meta_mean_motion": 14.26373923,
        "meta_eccentricity": 0.00542751,
        "meta_inclination": 98.7537,
        "meta_ra_of_asc_node": 52.6426,
        "meta_arg_of_pericenter": 234.0464,
        "meta_mean_anomaly": 125.5674,
        "meta_ephemeris_type": 0,
        "meta_classification_type": "U",
        "meta_norad_cat_id": 41830,
        "meta_element_set_no": 999,
        "meta_rev_at_epoch": 47187,
        "meta_bstar": 0.0031942221,
        "meta_mean_motion_dot": 7.76e-05,
        "meta_mean_motion_ddot": 0,
        "tle_line1": "1 41830U 99025EYH 25340.65803722  .00007760  00000+0  31942-2 0  9998",
        "tle_line2": "2 41830  98.7537  52.6426 0054275 234.0464 125.5674 14.26373923471875"
      },
      "geometry": {
        "type": "Point",
        "coordinates": [
          -113.7744586425823,
          55.44445271414952
        ]
      }
    },
    {
      "type": "Feature",
      "properties": {
        "norad_id": 41831,
        "name": "FENGYUN 1C DEB",
        "group": "fengyun-1c-debris",
        "lat": -12.490534228308588,
        "lon": 50.150421311002354,
        "alt_km": 828.6454839080452,
        "timestamp": "2025-12-07T07:31:36.588877+00:00",
        "meta_object_name": "FENGYUN 1C DEB",
        "meta_object_id": "1999-025EYJ",
        "meta_epoch": "2025-12-06T18:06:01.018944",
        "meta_mean_motion": 14.24501403,
        "meta_eccentricity": 0.0055951,
        "meta_inclination": 98.7345,
        "meta_ra_of_asc_node": 47.6426,
        "meta_arg_of_pericenter": 238.2686,
        "meta_mean_anomaly": 121.3033,
        "meta_ephemeris_type": 0,
        "meta_classification_type": "U",
        "meta_norad_cat_id": 41831,
        "meta_element_set_no": 999,
        "meta_rev_at_epoch": 47174,
        "meta_bstar": 0.0029232844,
        "meta_mean_motion_dot": 6.849e-05,
        "meta_mean_motion_ddot": 0,
        "tle_line1": "1 41831U 99025EYJ 25340.75417846  .00006849  00000+0  29233-2 0  9995",
        "tle_line2": "2 41831  98.7345  47.6426 0055951 238.2686 121.3033 14.24501403471744"
      },
      "geometry": {
        "type": "Point",
        "coordinates": [
          50.150421311002354,
          -12.490534228308588
        ]
      }
    },
    {
      "type": "Feature",
      "properties": {
        "norad_id": 41832,
        "name": "FENGYUN 1C DEB",
        "group": "fengyun-1c-debris",
        "lat": 47.37034620607295,
        "lon": 35.7643161284447,
        "alt_km": 845.6305246940201,
        "timestamp": "2025-12-07T07:31:36.588887+00:00",
        "meta_object_name": "FENGYUN 1C DEB",
        "meta_object_id": "1999-025EYK",
        "meta_epoch": "2025-12-05T03:01:44.450688",
        "meta_mean_motion": 14.2414868,
        "meta_eccentricity": 0.00551792,
        "meta_inclination": 98.7305,
        "meta_ra_of_asc_node": 43.2015,
        "meta_arg_of_pericenter": 247.5645,
        "meta_mean_anomaly": 111.9684,
        "meta_ephemeris_type": 0,
        "meta_classification_type": "U",
        "meta_norad_cat_id": 41832,
        "meta_element_set_no": 999,
        "meta_rev_at_epoch": 47242,
        "meta_bstar": 0.0034332062,
        "meta_mean_motion_dot": 7.994e-05,
        "meta_mean_motion_ddot": 0,
        "tle_line1": "1 41832U 99025EYK 25339.12620892  .00007994  00000+0  34332-2 0  9990",
        "tle_line2": "2 41832  98.7305  43.2015 0055179 247.5645 111.9684 14.24148680472424"
      },
      "geometry": {
        "type": "Point",
        "coordinates": [
          35.7643161284447,
          47.37034620607295
        ]
      }
    }
  ]
}